[{"OBJECT_NAME":"STARLINK-6320","OBJECT_ID":"2023-099J","EPOCH":"2026-03-20T06:00:02.999808","MEAN_MOTION":15.26399991,"ECCENTRICITY":0.00017769,"INCLINATION":43.0003,"RA_OF_ASC_NODE":189.3329,"ARG_OF_PERICENTER":249.9835,"MEAN_ANOMALY":32.144,"EPHEMERIS_TYPE":0,"CLASSIFICATION_TYPE":"U","NORAD_CAT_ID":57336,"ELEMENT_SET_NO":999,"REV_AT_EPOCH":577,"BSTAR":0.0030700331,"MEAN_MOTION_DOT":0.0008216,"MEAN_MOTION_DDOT":0},{"OBJECT_NAME":"STARLINK-6322","OBJECT_ID":"2023-099K","EPOCH":"2026-03-20T06:00:02.999808","MEAN_MOTION":15.09289067,"ECCENTRICITY":0.00023352,"INCLINATION":43.0002,"RA_OF_ASC_NODE":191.5731,"ARG_OF_PERICENTER":263.8884,"MEAN_ANOMALY":156.8436,"EPHEMERIS_TYPE":0,"CLASSIFICATION_TYPE":"U","NORAD_CAT_ID":57337,"ELEMENT_SET_NO":999,"REV_AT_EPOCH":578,"BSTAR":0.0041624874,"MEAN_MOTION_DOT":0.00067906,"MEAN_MOTION_DDOT":0},{"OBJECT_NAME":"STARLINK-6374","OBJECT_ID":"2023-099L","EPOCH":"2026-03-20T06:00:02.999808","MEAN_MOTION":15.0950842,"ECCENTRICITY":0.00028403,"INCLINATION":43.0001,"RA_OF_ASC_NODE":191.4932,"ARG_OF_PERICENTER":270.7251,"MEAN_ANOMALY":183.2006,"EPHEMERIS_TYPE":0,"CLASSIFICATION_TYPE":"U","NORAD_CAT_ID":57338,"ELEMENT_SET_NO":999,"REV_AT_EPOCH":578,"BSTAR":0.003915751,"MEAN_MOTION_DOT":0.00064223,"MEAN_MOTION_DDOT":0},{"OBJECT_NAME":"STARLINK-6332","OBJECT_ID":"2023-099M","EPOCH":"2026-03-20T06:00:02.999808","MEAN_MOTION":15.10194687,"ECCENTRICITY":0.00026922,"INCLINATION":43.0002,"RA_OF_ASC_NODE":191.5375,"ARG_OF_PERICENTER":260.9728,"MEAN_ANOMALY":175.8974,"EPHEMERIS_TYPE":0,"CLASSIFICATION_TYPE":"U","NORAD_CAT_ID":57339,"ELEMENT_SET_NO":999,"REV_AT_EPOCH":577,"BSTAR":0.0038772387,"MEAN_MOTION_DOT":0.0006481,"MEAN_MOTION_DDOT":0},{"OBJECT_NAME":"STARLINK-6321","OBJECT_ID":"2023-099N","EPOCH":"2026-03-20T06:00:02.999808","MEAN_MOTION":15.06345526,"ECCENTRICITY":9.972e-5,"INCLINATION":43.0003,"RA_OF_ASC_NODE":191.4464,"ARG_OF_PERICENTER":264.4813,"MEAN_ANOMALY":208.0192,"EPHEMERIS_TYPE":0,"CLASSIFICATION_TYPE":"U","NORAD_CAT_ID":57340,"ELEMENT_SET_NO":999,"REV_AT_EPOCH":563,"BSTAR":0.0045090219,"MEAN_MOTION_DOT":0.00067894,"MEAN_MOTION_DDOT":0},{"OBJECT_NAME":"STARLINK-6377","OBJECT_ID":"2023-099P","EPOCH":"2026-03-20T06:00:02.999808","MEAN_MOTION":15.09183895,"ECCENTRICITY":0.00025816,"INCLINATION":43.0006,"RA_OF_ASC_NODE":191.4169,"ARG_OF_PERICENTER":290.0584,"MEAN_ANOMALY":196.2821,"EPHEMERIS_TYPE":0,"CLASSIFICATION_TYPE":"U","NORAD_CAT_ID":57341,"ELEMENT_SET_NO":999,"REV_AT_EPOCH":573,"BSTAR":0.0037349657,"MEAN_MOTION_DOT":0.00060672,"MEAN_MOTION_DDOT":0},{"OBJECT_NAME":"STARLINK-6375","OBJECT_ID":"2023-099Q","EPOCH":"2026-03-20T06:00:02.999808","MEAN_MOTION":15.26656623,"ECCENTRICITY":0.00014787,"INCLINATION":43.0074,"RA_OF_ASC_NODE":189.2428,"ARG_OF_PERICENTER":277.9169,"MEAN_ANOMALY":49.9733,"EPHEMERIS_TYPE":0,"CLASSIFICATION_TYPE":"U","NORAD_CAT_ID":57342,"ELEMENT_SET_NO":999,"REV_AT_EPOCH":577,"BSTAR":0.006188254,"MEAN_MOTION_DOT":0.00169163,"MEAN_MOTION_DDOT":0},{"OBJECT_NAME":"STARLINK-6379","OBJECT_ID":"2023-099R","EPOCH":"2026-03-20T06:00:02.999808","MEAN_MOTION":15.0810307,"ECCENTRICITY":0.00026497,"INCLINATION":43.0006,"RA_OF_ASC_NODE":191.4231,"ARG_OF_PERICENTER":288.9086,"MEAN_ANOMALY":194.4684,"EPHEMERIS_TYPE":0,"CLASSIFICATION_TYPE":"U","NORAD_CAT_ID":57343,"ELEMENT_SET_NO":999,"REV_AT_EPOCH":563,"BSTAR":0.0038213,"MEAN_MOTION_DOT":0.00060262,"MEAN_MOTION_DDOT":0},{"OBJECT_NAME":"STARLINK-6380","OBJECT_ID":"2023-099S","EPOCH":"2026-03-20T06:00:02.999808","MEAN_MOTION":15.1104254,"ECCENTRICITY":0.00010295,"INCLINATION":43.0003,"RA_OF_ASC_NODE":191.1702,"ARG_OF_PERICENTER":287.79,"MEAN_ANOMALY":301.399,"EPHEMERIS_TYPE":0,"CLASSIFICATION_TYPE":"U","NORAD_CAT_ID":57344,"ELEMENT_SET_NO":999,"REV_AT_EPOCH":573,"BSTAR":0.0036349492,"MEAN_MOTION_DOT":0.00062165,"MEAN_MOTION_DDOT":0},{"OBJECT_NAME":"STARLINK-6373","OBJECT_ID":"2023-099T","EPOCH":"2026-03-20T06:00:02.999808","MEAN_MOTION":15.07126862,"ECCENTRICITY":0.0002201,"INCLINATION":43.0003,"RA_OF_ASC_NODE":191.371,"ARG_OF_PERICENTER":219.9779,"MEAN_ANOMALY":285.12,"EPHEMERIS_TYPE":0,"CLASSIFICATION_TYPE":"U","NORAD_CAT_ID":57345,"ELEMENT_SET_NO":999,"REV_AT_EPOCH":557,"BSTAR":0.0042711588,"MEAN_MOTION_DOT":0.00065661,"MEAN_MOTION_DDOT":0},{"OBJECT_NAME":"STARLINK-6359","OBJECT_ID":"2023-099U","EPOCH":"2026-03-20T06:00:02.999808","MEAN_MOTION":15.26302344,"ECCENTRICITY":0.00025331,"INCLINATION":43.0004,"RA_OF_ASC_NODE":189.2926,"ARG_OF_PERICENTER":260.0609,"MEAN_ANOMALY":46.1206,"EPHEMERIS_TYPE":0,"CLASSIFICATION_TYPE":"U","NORAD_CAT_ID":57346,"ELEMENT_SET_NO":999,"REV_AT_EPOCH":577,"BSTAR":0.0041946356,"MEAN_MOTION_DOT":0.00112487,"MEAN_MOTION_DDOT":0},{"OBJECT_NAME":"STARLINK-6378","OBJECT_ID":"2023-099V","EPOCH":"2026-03-20T06:00:02.999808","MEAN_MOTION":15.09229482,"ECCENTRICITY":0.00014063,"INCLINATION":43.0002,"RA_OF_ASC_NODE":191.2015,"ARG_OF_PERICENTER":329.8364,"MEAN_ANOMALY":247.3349,"EPHEMERIS_TYPE":0,"CLASSIFICATION_TYPE":"U","NORAD_CAT_ID":57347,"ELEMENT_SET_NO":999,"REV_AT_EPOCH":567,"BSTAR":0.0035387943,"MEAN_MOTION_DOT":0.00057518,"MEAN_MOTION_DDOT":0},{"OBJECT_NAME":"STARLINK-6372","OBJECT_ID":"2023-099W","EPOCH":"2026-03-20T06:00:02.999808","MEAN_MOTION":15.24442674,"ECCENTRICITY":0.00018352,"INCLINATION":42.9997,"RA_OF_ASC_NODE":189.3405,"ARG_OF_PERICENTER":256.9705,"MEAN_ANOMALY":25.5286,"EPHEMERIS_TYPE":0,"CLASSIFICATION_TYPE":"U","NORAD_CAT_ID":57348,"ELEMENT_SET_NO":999,"REV_AT_EPOCH":572,"BSTAR":0.0029292793,"MEAN_MOTION_DOT":0.00073805,"MEAN_MOTION_DDOT":0},{"OBJECT_NAME":"STARLINK-6376","OBJECT_ID":"2023-099X","EPOCH":"2026-03-20T06:00:02.999808","MEAN_MOTION":15.26704606,"ECCENTRICITY":0.00014277,"INCLINATION":43.001,"RA_OF_ASC_NODE":189.1396,"ARG_OF_PERICENTER":265.7,"MEAN_ANOMALY":104.8548,"EPHEMERIS_TYPE":0,"CLASSIFICATION_TYPE":"U","NORAD_CAT_ID":57349,"ELEMENT_SET_NO":999,"REV_AT_EPOCH":577,"BSTAR":0.0019409829,"MEAN_MOTION_DOT":0.00052117,"MEAN_MOTION_DDOT":0},{"OBJECT_NAME":"STARLINK-6362","OBJECT_ID":"2023-099Y","EPOCH":"2026-03-19T16:19:26.443488","MEAN_MOTION":15.02539967,"ECCENTRICITY":0.00014343,"INCLINATION":43.0022,"RA_OF_ASC_NODE":182.1566,"ARG_OF_PERICENTER":273.1134,"MEAN_ANOMALY":86.9544,"EPHEMERIS_TYPE":0,"CLASSIFICATION_TYPE":"U","NORAD_CAT_ID":57350,"ELEMENT_SET_NO":999,"REV_AT_EPOCH":14776,"BSTAR":-8.5992085e-5,"MEAN_MOTION_DOT":-1.365e-5,"MEAN_MOTION_DDOT":0},{"OBJECT_NAME":"STARLINK-6331","OBJECT_ID":"2023-099Z","EPOCH":"2026-03-20T06:00:02.999808","MEAN_MOTION":15.26731596,"ECCENTRICITY":0.0001842,"INCLINATION":43.0013,"RA_OF_ASC_NODE":188.8806,"ARG_OF_PERICENTER":275.3696,"MEAN_ANOMALY":204.3392,"EPHEMERIS_TYPE":0,"CLASSIFICATION_TYPE":"U","NORAD_CAT_ID":57351,"ELEMENT_SET_NO":999,"REV_AT_EPOCH":577,"BSTAR":0.0012531884,"MEAN_MOTION_DOT":0.000335,"MEAN_MOTION_DDOT":0},{"OBJECT_NAME":"STARLINK-6297","OBJECT_ID":"2023-099AA","EPOCH":"2026-03-19T08:11:12.537312","MEAN_MOTION":15.02534452,"ECCENTRICITY":0.00015563,"INCLINATION":43.0028,"RA_OF_ASC_NODE":183.9106,"ARG_OF_PERICENTER":270.3713,"MEAN_ANOMALY":89.6951,"EPHEMERIS_TYPE":0,"CLASSIFICATION_TYPE":"U","NORAD_CAT_ID":57352,"ELEMENT_SET_NO":999,"REV_AT_EPOCH":14771,"BSTAR":1.0104551e-5,"MEAN_MOTION_DOT":-6.7e-7,"MEAN_MOTION_DDOT":0},{"OBJECT_NAME":"STARLINK-6324","OBJECT_ID":"2023-099AB","EPOCH":"2026-03-20T06:00:02.999808","MEAN_MOTION":15.26578925,"ECCENTRICITY":0.00018886,"INCLINATION":43.0006,"RA_OF_ASC_NODE":189.0947,"ARG_OF_PERICENTER":255.694,"MEAN_ANOMALY":133.2992,"EPHEMERIS_TYPE":0,"CLASSIFICATION_TYPE":"U","NORAD_CAT_ID":57353,"ELEMENT_SET_NO":999,"REV_AT_EPOCH":562,"BSTAR":0.0030898845,"MEAN_MOTION_DOT":0.00083155,"MEAN_MOTION_DDOT":0},{"OBJECT_NAME":"STARLINK-6293","OBJECT_ID":"2023-099AC","EPOCH":"2026-03-20T06:18:36.448704","MEAN_MOTION":15.02535315,"ECCENTRICITY":0.00015873,"INCLINATION":43.0026,"RA_OF_ASC_NODE":178.7868,"ARG_OF_PERICENTER":275.8301,"MEAN_ANOMALY":84.236,"EPHEMERIS_TYPE":0,"CLASSIFICATION_TYPE":"U","NORAD_CAT_ID":57354,"ELEMENT_SET_NO":999,"REV_AT_EPOCH":14785,"BSTAR":3.1358419e-5,"MEAN_MOTION_DOT":2.2e-6,"MEAN_MOTION_DDOT":0},{"OBJECT_NAME":"STARLINK-6276","OBJECT_ID":"2023-099AD","EPOCH":"2026-03-20T06:36:11.756448","MEAN_MOTION":15.0253611,"ECCENTRICITY":0.00014431,"INCLINATION":43.0027,"RA_OF_ASC_NODE":178.8786,"ARG_OF_PERICENTER":268.8557,"MEAN_ANOMALY":91.212,"EPHEMERIS_TYPE":0,"CLASSIFICATION_TYPE":"U","NORAD_CAT_ID":57355,"ELEMENT_SET_NO":999,"REV_AT_EPOCH":14785,"BSTAR":7.9502656e-5,"MEAN_MOTION_DOT":8.7e-6,"MEAN_MOTION_DDOT":0},{"OBJECT_NAME":"STARLINK-6355","OBJECT_ID":"2023-099AE","EPOCH":"2026-03-20T06:17:00.700224","MEAN_MOTION":15.02535709,"ECCENTRICITY":0.00013452,"INCLINATION":43.0027,"RA_OF_ASC_NODE":178.7778,"ARG_OF_PERICENTER":280.0548,"MEAN_ANOMALY":80.0143,"EPHEMERIS_TYPE":0,"CLASSIFICATION_TYPE":"U","NORAD_CAT_ID":57356,"ELEMENT_SET_NO":999,"REV_AT_EPOCH":14785,"BSTAR":0.00010297569,"MEAN_MOTION_DOT":1.188e-5,"MEAN_MOTION_DDOT":0},{"OBJECT_NAME":"STARLINK-5600","OBJECT_ID":"2023-099AF","EPOCH":"2026-03-20T06:28:13.127232","MEAN_MOTION":15.02555188,"ECCENTRICITY":0.00023869,"INCLINATION":43.0043,"RA_OF_ASC_NODE":178.8375,"ARG_OF_PERICENTER":269.5683,"MEAN_ANOMALY":90.4886,"EPHEMERIS_TYPE":0,"CLASSIFICATION_TYPE":"U","NORAD_CAT_ID":57357,"ELEMENT_SET_NO":999,"REV_AT_EPOCH":14785,"BSTAR":-0.00057256437,"MEAN_MOTION_DOT":-7.934e-5,"MEAN_MOTION_DDOT":0},{"OBJECT_NAME":"STARLINK-6299","OBJECT_ID":"2023-099AG","EPOCH":"2026-03-19T15:47:28.424832","MEAN_MOTION":15.02537096,"ECCENTRICITY":0.00013618,"INCLINATION":43.0028,"RA_OF_ASC_NODE":181.9832,"ARG_OF_PERICENTER":270.443,"MEAN_ANOMALY":89.6257,"EPHEMERIS_TYPE":0,"CLASSIFICATION_TYPE":"U","NORAD_CAT_ID":57358,"ELEMENT_SET_NO":999,"REV_AT_EPOCH":14850,"BSTAR":3.0201428e-5,"MEAN_MOTION_DOT":2.04e-6,"MEAN_MOTION_DDOT":0}]
